ZHONGXING-19            
1 54230U 22148A   26116.88933730  .00000000  00000+0  00000+0 0  9996
2 54230   0.0080 220.9256 0002257 181.5055 295.8117  1.00270536 12865
GALAXY 31 (G-31)        
1 54243U 22153A   26116.89778747  .00000002  00000+0  00000+0 0  9994
2 54243   0.0121 241.5116 0001314 156.7569  18.8204  1.00274312  6618
GALAXY 32 (G-32)        
1 54244U 22153B   26116.54729101 -.00000186  00000+0  00000+0 0  9991
2 54244   0.0160 281.6637 0002791  99.2496 299.6544  1.00269851 12621
EUTELSAT 10B            
1 54259U 22157A   26116.92378757  .00000058  00000+0  00000+0 0  9997
2 54259   0.0597  89.7253 0001150  25.1021  82.6376  1.00274960 12510
GALAXY 35 (G-35)        
1 54741U 22170A   26116.90342082 -.00000173  00000+0  00000+0 0  9997
2 54741   0.0325 102.9219 0002020 292.3017  51.7914  1.00271677 12376
GALAXY 36 (G-36)        
1 54742U 22170B   26116.90420082 -.00000196  00000+0  00000+0 0  9990
2 54742   0.0122 193.7185 0002763 231.0726  26.6195  1.00271490 12255
METEOSAT-12 (MTG-I1)    
1 54743U 22170C   26116.92179422 -.00000019  00000+0  00000+0 0  9996
2 54743   0.7245  22.4196 0001119 334.3833 189.6263  1.00269615 12464
SHIJIAN-23 (SJ-23)      
1 55131U 23002A   26116.78468714 -.00000002  00000+0  00000+0 0  9994
2 55131   3.5875  78.9404 0006662 269.6601 317.9126  1.00460649 11996
APSTAR-6E               
1 55239U 23005A   26116.91247388 -.00000329  00000+0  00000+0 0  9995
2 55239   0.0185 236.2827 0000353 151.6335 289.4756  1.00272681 18170
USA 342                 
1 55263U 23008A   26113.00808718  .00000127  00000+0  00000+0 0  9997
2 55263   0.0118 259.6474 0000264 168.2405 169.9036  1.00272617 11965
ELEKTRO-L 4             
1 55506U 23016A   26115.94525556  .00000000  00000+0  00000+0 0  9997
2 55506   0.0465  36.2197 0000565 221.8853 101.8887  1.00269368 11810
AMAZONAS NEXUS          
1 55508U 23017A   26116.83842321  .00000000  00000+0  00000+0 0  9991
2 55508   0.0206  25.7774 0005549  12.7497  57.1463  1.00267163  6534
ZHONGXING-26            
1 55686U 23023A   26115.87706603 -.00000367  00000+0  00000+0 0  9997
2 55686   0.0627  67.4172 0004271 355.3993 231.9429  1.00269028 11702
LUCH-5X (OLYMP-K 2)     
1 55841U 23031A   26116.76016921  .00000022  00000+0  00000+0 0  9992
2 55841   0.0175  89.3153 0001471  91.5788   9.5064  1.00269339 11423
GAOFEN-13 02            
1 55912U 23036A   26116.16686045 -.00000234  00000+0  00000+0 0  9996
2 55912   1.0201 354.5774 0004751 337.7039  90.1726  1.00269343 11579
SES-18                  
1 55970U 23038A   26116.90142749  .00000000  00000+0  00000+0 0  9992
2 55970   0.0201 251.3099 0001337  89.7873  95.2084  1.00269402 11583
SES-19                  
1 55971U 23038B   26116.72678897  .00000076  00000+0  00000+0 0  9994
2 55971   0.0221 285.0119 0001543 102.2257 314.2285  1.00271054 11571
