[{"OBJECT_NAME":"ZHONGXING-19","OBJECT_ID":"2022-148A","EPOCH":"2026-04-26T21:20:38.742720","MEAN_MOTION":1.00270536,"ECCENTRICITY":0.00022571,"INCLINATION":0.008,"RA_OF_ASC_NODE":220.9256,"ARG_OF_PERICENTER":181.5055,"MEAN_ANOMALY":295.8117,"EPHEMERIS_TYPE":0,"CLASSIFICATION_TYPE":"U","NORAD_CAT_ID":54230,"ELEMENT_SET_NO":999,"REV_AT_EPOCH":1286,"BSTAR":0,"MEAN_MOTION_DOT":0,"MEAN_MOTION_DDOT":0},{"OBJECT_NAME":"GALAXY 31 (G-31)","OBJECT_ID":"2022-153A","EPOCH":"2026-04-26T21:32:48.837408","MEAN_MOTION":1.00274312,"ECCENTRICITY":0.00013148,"INCLINATION":0.0121,"RA_OF_ASC_NODE":241.5116,"ARG_OF_PERICENTER":156.7569,"MEAN_ANOMALY":18.8204,"EPHEMERIS_TYPE":0,"CLASSIFICATION_TYPE":"U","NORAD_CAT_ID":54243,"ELEMENT_SET_NO":999,"REV_AT_EPOCH":661,"BSTAR":0,"MEAN_MOTION_DOT":2.0e-8,"MEAN_MOTION_DDOT":0},{"OBJECT_NAME":"GALAXY 32 (G-32)","OBJECT_ID":"2022-153B","EPOCH":"2026-04-26T13:08:05.943264","MEAN_MOTION":1.00269851,"ECCENTRICITY":0.00027914,"INCLINATION":0.016,"RA_OF_ASC_NODE":281.6637,"ARG_OF_PERICENTER":99.2496,"MEAN_ANOMALY":299.6544,"EPHEMERIS_TYPE":0,"CLASSIFICATION_TYPE":"U","NORAD_CAT_ID":54244,"ELEMENT_SET_NO":999,"REV_AT_EPOCH":1262,"BSTAR":0,"MEAN_MOTION_DOT":-1.86e-6,"MEAN_MOTION_DDOT":0},{"OBJECT_NAME":"EUTELSAT 10B","OBJECT_ID":"2022-157A","EPOCH":"2026-04-26T22:10:15.246048","MEAN_MOTION":1.0027496,"ECCENTRICITY":0.00011506,"INCLINATION":0.0597,"RA_OF_ASC_NODE":89.7253,"ARG_OF_PERICENTER":25.1021,"MEAN_ANOMALY":82.6376,"EPHEMERIS_TYPE":0,"CLASSIFICATION_TYPE":"U","NORAD_CAT_ID":54259,"ELEMENT_SET_NO":999,"REV_AT_EPOCH":1251,"BSTAR":0,"MEAN_MOTION_DOT":5.8e-7,"MEAN_MOTION_DDOT":0},{"OBJECT_NAME":"GALAXY 35 (G-35)","OBJECT_ID":"2022-170A","EPOCH":"2026-04-26T21:40:55.558848","MEAN_MOTION":1.00271677,"ECCENTRICITY":0.00020209,"INCLINATION":0.0325,"RA_OF_ASC_NODE":102.9219,"ARG_OF_PERICENTER":292.3017,"MEAN_ANOMALY":51.7914,"EPHEMERIS_TYPE":0,"CLASSIFICATION_TYPE":"U","NORAD_CAT_ID":54741,"ELEMENT_SET_NO":999,"REV_AT_EPOCH":1237,"BSTAR":0,"MEAN_MOTION_DOT":-1.73e-6,"MEAN_MOTION_DDOT":0},{"OBJECT_NAME":"GALAXY 36 (G-36)","OBJECT_ID":"2022-170B","EPOCH":"2026-04-26T21:42:02.950848","MEAN_MOTION":1.0027149,"ECCENTRICITY":0.00027637,"INCLINATION":0.0122,"RA_OF_ASC_NODE":193.7185,"ARG_OF_PERICENTER":231.0726,"MEAN_ANOMALY":26.6195,"EPHEMERIS_TYPE":0,"CLASSIFICATION_TYPE":"U","NORAD_CAT_ID":54742,"ELEMENT_SET_NO":999,"REV_AT_EPOCH":1225,"BSTAR":0,"MEAN_MOTION_DOT":-1.96e-6,"MEAN_MOTION_DDOT":0},{"OBJECT_NAME":"METEOSAT-12 (MTG-I1)","OBJECT_ID":"2022-170C","EPOCH":"2026-04-26T22:07:23.020608","MEAN_MOTION":1.00269615,"ECCENTRICITY":0.00011196,"INCLINATION":0.7245,"RA_OF_ASC_NODE":22.4196,"ARG_OF_PERICENTER":334.3833,"MEAN_ANOMALY":189.6263,"EPHEMERIS_TYPE":0,"CLASSIFICATION_TYPE":"U","NORAD_CAT_ID":54743,"ELEMENT_SET_NO":999,"REV_AT_EPOCH":1246,"BSTAR":0,"MEAN_MOTION_DOT":-1.9e-7,"MEAN_MOTION_DDOT":0},{"OBJECT_NAME":"SHIJIAN-23 (SJ-23)","OBJECT_ID":"2023-002A","EPOCH":"2026-04-26T18:49:56.968896","MEAN_MOTION":1.00460649,"ECCENTRICITY":0.0006662,"INCLINATION":3.5875,"RA_OF_ASC_NODE":78.9404,"ARG_OF_PERICENTER":269.6601,"MEAN_ANOMALY":317.9126,"EPHEMERIS_TYPE":0,"CLASSIFICATION_TYPE":"U","NORAD_CAT_ID":55131,"ELEMENT_SET_NO":999,"REV_AT_EPOCH":1199,"BSTAR":0,"MEAN_MOTION_DOT":-2.0e-8,"MEAN_MOTION_DDOT":0},{"OBJECT_NAME":"APSTAR-6E","OBJECT_ID":"2023-005A","EPOCH":"2026-04-26T21:53:57.743232","MEAN_MOTION":1.00272681,"ECCENTRICITY":3.53e-5,"INCLINATION":0.0185,"RA_OF_ASC_NODE":236.2827,"ARG_OF_PERICENTER":151.6335,"MEAN_ANOMALY":289.4756,"EPHEMERIS_TYPE":0,"CLASSIFICATION_TYPE":"U","NORAD_CAT_ID":55239,"ELEMENT_SET_NO":999,"REV_AT_EPOCH":1817,"BSTAR":0,"MEAN_MOTION_DOT":-3.29e-6,"MEAN_MOTION_DDOT":0},{"OBJECT_NAME":"USA 342","OBJECT_ID":"2023-008A","EPOCH":"2026-04-23T00:11:38.732352","MEAN_MOTION":1.00272617,"ECCENTRICITY":2.64e-5,"INCLINATION":0.0118,"RA_OF_ASC_NODE":259.6474,"ARG_OF_PERICENTER":168.2405,"MEAN_ANOMALY":169.9036,"EPHEMERIS_TYPE":0,"CLASSIFICATION_TYPE":"U","NORAD_CAT_ID":55263,"ELEMENT_SET_NO":999,"REV_AT_EPOCH":1196,"BSTAR":0,"MEAN_MOTION_DOT":1.27e-6,"MEAN_MOTION_DDOT":0},{"OBJECT_NAME":"ELEKTRO-L 4","OBJECT_ID":"2023-016A","EPOCH":"2026-04-25T22:41:10.080384","MEAN_MOTION":1.00269368,"ECCENTRICITY":5.652e-5,"INCLINATION":0.0465,"RA_OF_ASC_NODE":36.2197,"ARG_OF_PERICENTER":221.8853,"MEAN_ANOMALY":101.8887,"EPHEMERIS_TYPE":0,"CLASSIFICATION_TYPE":"U","NORAD_CAT_ID":55506,"ELEMENT_SET_NO":999,"REV_AT_EPOCH":1181,"BSTAR":0,"MEAN_MOTION_DOT":0,"MEAN_MOTION_DDOT":0},{"OBJECT_NAME":"AMAZONAS NEXUS","OBJECT_ID":"2023-017A","EPOCH":"2026-04-26T20:07:19.765344","MEAN_MOTION":1.00267163,"ECCENTRICITY":0.00055492,"INCLINATION":0.0206,"RA_OF_ASC_NODE":25.7774,"ARG_OF_PERICENTER":12.7497,"MEAN_ANOMALY":57.1463,"EPHEMERIS_TYPE":0,"CLASSIFICATION_TYPE":"U","NORAD_CAT_ID":55508,"ELEMENT_SET_NO":999,"REV_AT_EPOCH":653,"BSTAR":0,"MEAN_MOTION_DOT":0,"MEAN_MOTION_DDOT":0},{"OBJECT_NAME":"ZHONGXING-26","OBJECT_ID":"2023-023A","EPOCH":"2026-04-25T21:02:58.504992","MEAN_MOTION":1.00269028,"ECCENTRICITY":0.00042717,"INCLINATION":0.0627,"RA_OF_ASC_NODE":67.4172,"ARG_OF_PERICENTER":355.3993,"MEAN_ANOMALY":231.9429,"EPHEMERIS_TYPE":0,"CLASSIFICATION_TYPE":"U","NORAD_CAT_ID":55686,"ELEMENT_SET_NO":999,"REV_AT_EPOCH":1170,"BSTAR":0,"MEAN_MOTION_DOT":-3.67e-6,"MEAN_MOTION_DDOT":0},{"OBJECT_NAME":"LUCH-5X (OLYMP-K 2)","OBJECT_ID":"2023-031A","EPOCH":"2026-04-26T18:14:38.619744","MEAN_MOTION":1.00269339,"ECCENTRICITY":0.0001471,"INCLINATION":0.0175,"RA_OF_ASC_NODE":89.3153,"ARG_OF_PERICENTER":91.5788,"MEAN_ANOMALY":9.5064,"EPHEMERIS_TYPE":0,"CLASSIFICATION_TYPE":"U","NORAD_CAT_ID":55841,"ELEMENT_SET_NO":999,"REV_AT_EPOCH":1142,"BSTAR":0,"MEAN_MOTION_DOT":2.2e-7,"MEAN_MOTION_DDOT":0},{"OBJECT_NAME":"GAOFEN-13 02","OBJECT_ID":"2023-036A","EPOCH":"2026-04-26T04:00:16.742880","MEAN_MOTION":1.00269343,"ECCENTRICITY":0.00047513,"INCLINATION":1.0201,"RA_OF_ASC_NODE":354.5774,"ARG_OF_PERICENTER":337.7039,"MEAN_ANOMALY":90.1726,"EPHEMERIS_TYPE":0,"CLASSIFICATION_TYPE":"U","NORAD_CAT_ID":55912,"ELEMENT_SET_NO":999,"REV_AT_EPOCH":1157,"BSTAR":0,"MEAN_MOTION_DOT":-2.34e-6,"MEAN_MOTION_DDOT":0},{"OBJECT_NAME":"SES-18","OBJECT_ID":"2023-038A","EPOCH":"2026-04-26T21:38:03.335136","MEAN_MOTION":1.00269402,"ECCENTRICITY":0.00013377,"INCLINATION":0.0201,"RA_OF_ASC_NODE":251.3099,"ARG_OF_PERICENTER":89.7873,"MEAN_ANOMALY":95.2084,"EPHEMERIS_TYPE":0,"CLASSIFICATION_TYPE":"U","NORAD_CAT_ID":55970,"ELEMENT_SET_NO":999,"REV_AT_EPOCH":1158,"BSTAR":0,"MEAN_MOTION_DOT":0,"MEAN_MOTION_DDOT":0},{"OBJECT_NAME":"SES-19","OBJECT_ID":"2023-038B","EPOCH":"2026-04-26T17:26:34.567008","MEAN_MOTION":1.00271054,"ECCENTRICITY":0.00015439,"INCLINATION":0.0221,"RA_OF_ASC_NODE":285.0119,"ARG_OF_PERICENTER":102.2257,"MEAN_ANOMALY":314.2285,"EPHEMERIS_TYPE":0,"CLASSIFICATION_TYPE":"U","NORAD_CAT_ID":55971,"ELEMENT_SET_NO":999,"REV_AT_EPOCH":1157,"BSTAR":0,"MEAN_MOTION_DOT":7.6e-7,"MEAN_MOTION_DDOT":0}]
